ASTRA 2G                
1 40364U 14089A   26197.13295104  .00000139  00000+0  00000+0 0  9990
2 40364   0.0535  29.3235 0004500  45.6674 295.0281  1.00268720 42253
FENGYUN 2G              
1 40367U 14090A   26197.07566270 -.00000315  00000+0  00000+0 0  9990
2 40367   5.7094  72.4622 0004256 172.6495 175.3803  1.00280561 42287
MUOS-3                  
1 40374U 15002A   26197.08447480 -.00000141  00000+0  00000+0 0  9991
2 40374   4.5747  43.6291 0053506 176.9525  88.2182  1.00273523 41878
INMARSAT 5-F2           
1 40384U 15005A   26197.12530600 -.00000296  00000+0  00000+0 0  9998
2 40384   0.0197  38.5135 0000481  53.4476 192.1062  1.00271667 41281
ABS-3A                  
1 40424U 15010A   26196.88655816 -.00000036  00000+0  00000+0 0  9990
2 40424   0.0120  43.6450 0001548  30.1200 176.1536  1.00274825 41660
EUTELSAT 115 WEST B     
1 40425U 15010B   26196.98924235 -.00000035  00000+0  00000+0 0  9995
2 40425   0.0086 162.7982 0000359 294.0467  78.1934  1.00271431 41674
EXPRESS-AM7             
1 40505U 15012A   26197.13529105  .00000140  00000+0  00000+0 0  9997
2 40505   0.0169  47.2925 0002756  74.4475 260.9077  1.00270836 41296
BEIDOU-3S IGSO-1S       
1 40549U 15019A   26183.80025122 -.00000190  00000+0  00000+0 0  9997
2 40549  49.1798 295.2769 0076860 219.1125 144.2493  1.00680073 41232
THOR 7                  
1 40613U 15022A   26197.12723102 -.00000019  00000+0  00000+0 0  9996
2 40613   0.0337 234.7428 0002256 241.6312 222.7360  1.00273407 41105
TURKMENALEM52E/MONACOSAT
1 40617U 15023A   26197.13763108  .00000093  00000+0  00000+0 0  9993
2 40617   0.0337  84.3698 0002648  38.2068 272.9418  1.00271614 41132
DIRECTV 15              
1 40663U 15026A   26195.68123920 -.00000111  00000+0  00000+0 0  9999
2 40663   0.0176  71.4979 0000099 242.5429 120.8693  1.00271323 40730
SKY MEXICO-1            
1 40664U 15026B   26197.11855602 -.00000245  00000+0  00000+0 0  9997
2 40664   0.0159  47.1459 0002423  89.3509 121.3242  1.00269900 40749
METEOSAT-11 (MSG-4)     
1 40732U 15034A   26197.12913770  .00000049  00000+0  00000+0 0  9995
2 40732   3.2712  70.9255 0002150 354.5181 284.2621  1.00272152  7503
STAR ONE C4             
1 40733U 15034B   26197.04217825 -.00000275  00000+0  00000+0 0  9997
2 40733   0.0315 326.4694 0001320 131.8773 140.6925  1.00269003 40303
WGS F7 (USA 263)        
1 40746U 15036A   26197.09074277  .00000007  00000+0  00000+0 0  9992
2 40746   0.0171  43.8577 0000032 152.2060 305.5222  1.00270283 40160
INTELSAT 34 (IS-34)     
1 40874U 15039A   26197.11631450 -.00000296  00000+0  00000+0 0  9993
2 40874   0.0104  16.4226 0000390 352.3387 271.5648  1.00269484 39924
EUTELSAT 8 WEST B       
1 40875U 15039B   26197.08447480 -.00000076  00000+0  00000+0 0  9994
2 40875   0.0638 350.3374 0003792 119.1844 206.8139  1.00271865 39941
GSAT-6                  
1 40880U 15041A   26197.14369778 -.00000172  00000+0  00000+0 0  9990
2 40880   1.9913  82.2310 0002993  29.5701 316.4135  1.00273066 39884
INMARSAT 5-F3           
1 40882U 15042A   26197.07822477  .00000040  00000+0  00000+0 0  9998
2 40882   0.0184  44.8308 0000458 126.9932 329.8372  1.00272905 39869
MUOS-4                  
1 40887U 15044A   26197.14213777 -.00000104  00000+0  00000+0 0  9992
2 40887   4.3832  42.4003 0056506   3.4824  14.2452  1.00271318 39851
TJS-1                   
1 40892U 15046A   26197.18100473 -.00000167  00000+0  00000+0 0  9991
2 40892   0.3962  84.7492 0005061  19.4071  50.0472  1.00271359 39865
EXPRESS-AM8             
1 40895U 15048A   26197.19588045 -.00000122  00000+0  00000+0 0  9993
2 40895   0.0217 303.4457 0000256  64.3681 342.7230  1.00271515 39639
BEIDOU-3S IGSO-2S       
1 40938U 15053A   26197.14569112 -.00000096  00000+0  00000+0 0  9996
2 40938  49.1773 258.4358 0066263 193.1701 348.1230  1.00252633 39642
SKY MUSTER 1 (NBN1A)    
1 40940U 15054A   26196.79866916  .00000000  00000+0  00000+0 0  9996
2 40940   0.0160  29.3656 0001600  89.7202 242.3230  1.00270128 39540
ARSAT 2                 
1 40941U 15054B   26197.11134500 -.00000235  00000+0  00000+0 0  9992
2 40941   0.0607 269.7166 0001841 204.2748 139.0278  1.00266441 39591
MORELOS 3               
1 40946U 15056A   26196.89107484 -.00000054  00000+0  00000+0 0  9993
2 40946   3.2107  15.7989 0000419 127.9478 357.6863  1.00270519 39576
APSTAR-9                
1 40982U 15059A   26196.94159449 -.00000276  00000+0  00000+0 0  9996
2 40982   0.0264  49.8569 0003095 137.5502 227.3620  1.00271601 39404
TURKSAT 4B              
1 40984U 15060A   26196.92339440  .00000104  00000+0  00000+0 0  9998
2 40984   0.0420 245.3553 0002210 235.1489 195.6634  1.00275825 39384
ZHONGXING-2C            
1 41021U 15063A   26196.86273470 -.00000335  00000+0  00000+0 0  9994
2 41021   0.3454  88.4683 0008044  99.2081 160.0609  1.00276014 39261
GSAT-15                 
1 41028U 15065A   26195.36368464  .00000000  00000+0  00000+0 0  9993
2 41028   0.0277  63.4769 0003580  29.8725  63.3157  1.00267881 39074
BADR-7 (ARABSAT-6B)     
1 41029U 15065B   26196.49081185  .00000000  00000+0  00000+0 0  9991
2 41029   0.0159 241.4528 0005167 321.5202 293.1007  1.00275469 39056
LAOSAT 1                
1 41034U 15067A   26197.06503198  .00000000  00000+0  00000+0 0  9996
2 41034   0.0160 264.2284 0002205 161.5976  19.9802  1.00264467 39149
