OBJECT_NAME,OBJECT_ID,EPOCH,MEAN_MOTION,ECCENTRICITY,INCLINATION,RA_OF_ASC_NODE,ARG_OF_PERICENTER,MEAN_ANOMALY,EPHEMERIS_TYPE,CLASSIFICATION_TYPE,NORAD_CAT_ID,ELEMENT_SET_NO,REV_AT_EPOCH,BSTAR,MEAN_MOTION_DOT,MEAN_MOTION_DDOT
ASTRA 2G,2014-089A,2026-07-16T03:11:26.969856,1.00268720,.00045,0.0535,29.3235,45.6674,295.0281,0,U,40364,999,4225,0,.139E-5,0
FENGYUN 2G,2014-090A,2026-07-16T01:48:57.257280,1.00280561,.0004256,5.7094,72.4622,172.6495,175.3803,0,U,40367,999,4228,0,-.315E-5,0
MUOS-3,2015-002A,2026-07-16T02:01:38.622720,1.00273523,.0053506,4.5747,43.6291,176.9525,88.2182,0,U,40374,999,4187,0,-.141E-5,0
INMARSAT 5-F2,2015-005A,2026-07-16T03:00:26.438400,1.00271667,.0000481,0.0197,38.5135,53.4476,192.1062,0,U,40384,999,4128,0,-.296E-5,0
ABS-3A,2015-010A,2026-07-15T21:16:38.625024,1.00274825,.0001548,0.0120,43.6450,30.1200,176.1536,0,U,40424,999,4166,0,-.36E-6,0
EUTELSAT 115 WEST B,2015-010B,2026-07-15T23:44:30.539040,1.00271431,.0000359,0.0086,162.7982,294.0467,78.1934,0,U,40425,999,4167,0,-.35E-6,0
EXPRESS-AM7,2015-012A,2026-07-16T03:14:49.146720,1.00270836,.0002756,0.0169,47.2925,74.4475,260.9077,0,U,40505,999,4129,0,.14E-5,0
BEIDOU-3S IGSO-1S,2015-019A,2026-07-02T19:12:21.705408,1.00680073,.00768606,49.1798,295.2769,219.1125,144.2493,0,U,40549,999,4123,0,-.19E-5,0
THOR 7,2015-022A,2026-07-16T03:03:12.760128,1.00273407,.0002256,0.0337,234.7428,241.6312,222.7360,0,U,40613,999,4110,0,-.19E-6,0
TURKMENALEM52E/MONACOSAT,2015-023A,2026-07-16T03:18:11.325312,1.00271614,.0002648,0.0337,84.3698,38.2068,272.9418,0,U,40617,999,4113,0,.93E-6,0
DIRECTV 15,2015-026A,2026-07-14T16:20:59.066880,1.00271323,.00000994,0.0176,71.4979,242.5429,120.8693,0,U,40663,999,4073,0,-.111E-5,0
SKY MEXICO-1,2015-026B,2026-07-16T02:50:43.240128,1.00269900,.0002423,0.0159,47.1459,89.3509,121.3242,0,U,40664,999,4074,0,-.245E-5,0
METEOSAT-11 (MSG-4),2015-034A,2026-07-16T03:05:57.497280,1.00272152,.000215,3.2712,70.9255,354.5181,284.2621,0,U,40732,999,750,0,.49E-6,0
STAR ONE C4,2015-034B,2026-07-16T01:00:44.200800,1.00269003,.000132,0.0315,326.4694,131.8773,140.6925,0,U,40733,999,4030,0,-.275E-5,0
WGS F7 (USA 263),2015-036A,2026-07-16T02:10:40.175328,1.00270283,.0000032,0.0171,43.8577,152.2060,305.5222,0,U,40746,999,4016,0,.7E-7,0
INTELSAT 34 (IS-34),2015-039A,2026-07-16T02:47:29.572800,1.00269484,.000039,0.0104,16.4226,352.3387,271.5648,0,U,40874,999,3992,0,-.296E-5,0
EUTELSAT 8 WEST B,2015-039B,2026-07-16T02:01:38.622720,1.00271865,.0003792,0.0638,350.3374,119.1844,206.8139,0,U,40875,999,3994,0,-.76E-6,0
GSAT-6,2015-041A,2026-07-16T03:26:55.488192,1.00273066,.0002993,1.9913,82.2310,29.5701,316.4135,0,U,40880,999,3988,0,-.172E-5,0
INMARSAT 5-F3,2015-042A,2026-07-16T01:52:38.620128,1.00272905,.0000458,0.0184,44.8308,126.9932,329.8372,0,U,40882,999,3986,0,.4E-6,0
MUOS-4,2015-044A,2026-07-16T03:24:40.703328,1.00271318,.0056506,4.3832,42.4003,3.4824,14.2452,0,U,40887,999,3985,0,-.104E-5,0
TJS-1,2015-046A,2026-07-16T04:20:38.808672,1.00271359,.0005061,0.3962,84.7492,19.4071,50.0472,0,U,40892,999,3986,0,-.167E-5,0
EXPRESS-AM8,2015-048A,2026-07-16T04:42:04.070880,1.00271515,.0000256,0.0217,303.4457,64.3681,342.7230,0,U,40895,999,3963,0,-.122E-5,0
BEIDOU-3S IGSO-2S,2015-053A,2026-07-16T03:29:47.712768,1.00252633,.0066263,49.1773,258.4358,193.1701,348.1230,0,U,40938,999,3964,0,-.96E-6,0
SKY MUSTER 1 (NBN1A),2015-054A,2026-07-15T19:10:05.015424,1.00270128,.00016008,0.0160,29.3656,89.7202,242.3230,0,U,40940,999,3954,0,0,0
ARSAT 2,2015-054B,2026-07-16T02:40:20.208000,1.00266441,.0001841,0.0607,269.7166,204.2748,139.0278,0,U,40941,999,3959,0,-.235E-5,0
MORELOS 3,2015-056A,2026-07-15T21:23:08.866176,1.00270519,.00004199,3.2107,15.7989,127.9478,357.6863,0,U,40946,999,3957,0,-.54E-6,0
APSTAR-9,2015-059A,2026-07-15T22:35:53.763936,1.00271601,.00030954,0.0264,49.8569,137.5502,227.3620,0,U,40982,999,3940,0,-.276E-5,0
TURKSAT 4B,2015-060A,2026-07-15T22:09:41.276160,1.00275825,.00022108,0.0420,245.3553,235.1489,195.6634,0,U,40984,999,3938,0,.104E-5,0
ZHONGXING-2C,2015-063A,2026-07-15T20:42:20.278080,1.00276014,.00080441,0.3454,88.4683,99.2081,160.0609,0,U,41021,999,3926,0,-.335E-5,0
GSAT-15,2015-065A,2026-07-14T08:43:42.352896,1.00267881,.00035804,0.0277,63.4769,29.8725,63.3157,0,U,41028,999,3907,0,0,0
BADR-7 (ARABSAT-6B),2015-065B,2026-07-15T11:46:46.143840,1.00275469,.00051673,0.0159,241.4528,321.5202,293.1007,0,U,41029,999,3905,0,0,0
LAOSAT 1,2015-067A,2026-07-16T01:33:38.763072,1.00264467,.0002205,0.0160,264.2284,161.5976,19.9802,0,U,41034,999,3914,0,0,0
